STARLINK-37062          
1 68087U 26042U   26089.48197832 -.00449849  00000+0 -24426-2 0  9999
2 68087  53.1575  90.4153 0000341  78.1151 281.9910 15.80462221  5376
STARLINK-37059          
1 68088U 26042V   26089.50002314  .00131900  00000+0  85277-3 0  9999
2 68088  53.1586  90.4105 0001042  86.2124 334.9180 15.75198295  5396
STARLINK-37004          
1 68089U 26042W   26089.50002314  .00093508  00000+0  60811-3 0  9998
2 68089  53.1579  90.4637 0001048  87.2953 308.0716 15.75213456  5390
STARLINK-36320          
1 68090U 26042X   26086.15385821  .00375248  00000+0  23254-2 0  9998
2 68090  53.1593 107.3571 0002763 139.4736 220.6491 15.75432358  4849
STARLINK-36324          
1 68091U 26042Y   26089.26726065  .00582818  00000+0  33954-2 0  9994
2 68091  53.1590  91.9377 0004456 203.1817 156.9003 15.76263702  5330
STARLINK-36896          
1 68092U 26042Z   26089.33334490  .00058418  00000+0  38312-3 0  9998
2 68092  53.1586  91.5040 0001052 107.7957 318.8066 15.75209260  5372
STARLINK-36251          
1 68093U 26042AA  26089.33334490  .00055873  00000+0  28507-3 0  9996
2 68093  53.1570  91.0992 0001269  61.9230 201.9667 15.80850915  5365
STARLINK-36787          
1 68094U 26042AB  26089.45338772  .00254299  00000+0  16087-2 0  9999
2 68094  53.1587  90.9615 0001334  81.0779 279.0392 15.75309729  5354
STARLINK-36790          
1 68095U 26042AC  26089.11798775 -.00620495  00000+0 -42900-2 0  9996
2 68095  53.1589  92.4188 0003559 134.4676 225.6636 15.75525520  5301
STARLINK-36328          
1 68096U 26042AD  26089.50002314  .00151994  00000+0  98008-3 0  9999
2 68096  53.1586  90.3603 0001196 111.3550 333.6667 15.75189502  5386
STARLINK-36853          
1 68097U 26042AE  26087.57934027  .00403030  00000+0  19383-2 0  9999
2 68097  53.1585  99.8798 0001547  92.2219 267.8981 15.81023297  5061
GLOBAL-34               
1 68098U 26043A   26089.01521913  .00016512  00000+0  53141-3 0  9994
2 68098  42.0222 318.1532 0003687  67.6458 292.4770 15.31905044  3688
