CCSDS_OMM_VERS = 2.0
CREATION_DATE  = 
ORIGINATOR     = 

OBJECT_NAME    = STARLINK-37062
OBJECT_ID      = 2026-042U
CENTER_NAME    = EARTH
REF_FRAME      = TEME
TIME_SYSTEM    = UTC
MEAN_ELEMENT_THEORY = SGP/SGP4

EPOCH          = 2026-03-30T11:34:02.926848
MEAN_MOTION    = 15.80462221
ECCENTRICITY   = .0000341
INCLINATION    = 53.1575
RA_OF_ASC_NODE = 90.4153
ARG_OF_PERICENTER = 78.1151
MEAN_ANOMALY   = 281.9910

EPHEMERIS_TYPE = 0
CLASSIFICATION_TYPE = U
NORAD_CAT_ID   = 68087
ELEMENT_SET_NO = 999
REV_AT_EPOCH   = 537
BSTAR          = -.24426E-2
MEAN_MOTION_DOT = -.449849E-2
MEAN_MOTION_DDOT = 0

CCSDS_OMM_VERS = 2.0
CREATION_DATE  = 
ORIGINATOR     = 

OBJECT_NAME    = STARLINK-37059
OBJECT_ID      = 2026-042V
CENTER_NAME    = EARTH
REF_FRAME      = TEME
TIME_SYSTEM    = UTC
MEAN_ELEMENT_THEORY = SGP/SGP4

EPOCH          = 2026-03-30T12:00:01.999296
MEAN_MOTION    = 15.75198295
ECCENTRICITY   = .0001042
INCLINATION    = 53.1586
RA_OF_ASC_NODE = 90.4105
ARG_OF_PERICENTER = 86.2124
MEAN_ANOMALY   = 334.9180

EPHEMERIS_TYPE = 0
CLASSIFICATION_TYPE = U
NORAD_CAT_ID   = 68088
ELEMENT_SET_NO = 999
REV_AT_EPOCH   = 539
BSTAR          = .85277E-3
MEAN_MOTION_DOT = .1319E-2
MEAN_MOTION_DDOT = 0

CCSDS_OMM_VERS = 2.0
CREATION_DATE  = 
ORIGINATOR     = 

OBJECT_NAME    = STARLINK-37004
OBJECT_ID      = 2026-042W
CENTER_NAME    = EARTH
REF_FRAME      = TEME
TIME_SYSTEM    = UTC
MEAN_ELEMENT_THEORY = SGP/SGP4

EPOCH          = 2026-03-30T12:00:01.999296
MEAN_MOTION    = 15.75213456
ECCENTRICITY   = .0001048
INCLINATION    = 53.1579
RA_OF_ASC_NODE = 90.4637
ARG_OF_PERICENTER = 87.2953
MEAN_ANOMALY   = 308.0716

EPHEMERIS_TYPE = 0
CLASSIFICATION_TYPE = U
NORAD_CAT_ID   = 68089
ELEMENT_SET_NO = 999
REV_AT_EPOCH   = 539
BSTAR          = .60811E-3
MEAN_MOTION_DOT = .93508E-3
MEAN_MOTION_DDOT = 0

CCSDS_OMM_VERS = 2.0
CREATION_DATE  = 
ORIGINATOR     = 

OBJECT_NAME    = STARLINK-36320
OBJECT_ID      = 2026-042X
CENTER_NAME    = EARTH
REF_FRAME      = TEME
TIME_SYSTEM    = UTC
MEAN_ELEMENT_THEORY = SGP/SGP4

EPOCH          = 2026-03-27T03:41:33.349344
MEAN_MOTION    = 15.75432358
ECCENTRICITY   = .00027632
INCLINATION    = 53.1593
RA_OF_ASC_NODE = 107.3571
ARG_OF_PERICENTER = 139.4736
MEAN_ANOMALY   = 220.6491

EPHEMERIS_TYPE = 0
CLASSIFICATION_TYPE = U
NORAD_CAT_ID   = 68090
ELEMENT_SET_NO = 999
REV_AT_EPOCH   = 484
BSTAR          = .2325439E-2
MEAN_MOTION_DOT = .375248E-2
MEAN_MOTION_DDOT = 0

CCSDS_OMM_VERS = 2.0
CREATION_DATE  = 
ORIGINATOR     = 

OBJECT_NAME    = STARLINK-36324
OBJECT_ID      = 2026-042Y
CENTER_NAME    = EARTH
REF_FRAME      = TEME
TIME_SYSTEM    = UTC
MEAN_ELEMENT_THEORY = SGP/SGP4

EPOCH          = 2026-03-30T06:24:51.320160
MEAN_MOTION    = 15.76263702
ECCENTRICITY   = .0004456
INCLINATION    = 53.1590
RA_OF_ASC_NODE = 91.9377
ARG_OF_PERICENTER = 203.1817
MEAN_ANOMALY   = 156.9003

EPHEMERIS_TYPE = 0
CLASSIFICATION_TYPE = U
NORAD_CAT_ID   = 68091
ELEMENT_SET_NO = 999
REV_AT_EPOCH   = 533
BSTAR          = .33954E-2
MEAN_MOTION_DOT = .582818E-2
MEAN_MOTION_DDOT = 0

CCSDS_OMM_VERS = 2.0
CREATION_DATE  = 
ORIGINATOR     = 

OBJECT_NAME    = STARLINK-36896
OBJECT_ID      = 2026-042Z
CENTER_NAME    = EARTH
REF_FRAME      = TEME
TIME_SYSTEM    = UTC
MEAN_ELEMENT_THEORY = SGP/SGP4

EPOCH          = 2026-03-30T08:00:00.999360
MEAN_MOTION    = 15.75209260
ECCENTRICITY   = .0001052
INCLINATION    = 53.1586
RA_OF_ASC_NODE = 91.5040
ARG_OF_PERICENTER = 107.7957
MEAN_ANOMALY   = 318.8066

EPHEMERIS_TYPE = 0
CLASSIFICATION_TYPE = U
NORAD_CAT_ID   = 68092
ELEMENT_SET_NO = 999
REV_AT_EPOCH   = 537
BSTAR          = .38312E-3
MEAN_MOTION_DOT = .58418E-3
MEAN_MOTION_DDOT = 0

CCSDS_OMM_VERS = 2.0
CREATION_DATE  = 
ORIGINATOR     = 

OBJECT_NAME    = STARLINK-36251
OBJECT_ID      = 2026-042AA
CENTER_NAME    = EARTH
REF_FRAME      = TEME
TIME_SYSTEM    = UTC
MEAN_ELEMENT_THEORY = SGP/SGP4

EPOCH          = 2026-03-30T08:00:00.999360
MEAN_MOTION    = 15.80850915
ECCENTRICITY   = .0001269
INCLINATION    = 53.1570
RA_OF_ASC_NODE = 91.0992
ARG_OF_PERICENTER = 61.9230
MEAN_ANOMALY   = 201.9667

EPHEMERIS_TYPE = 0
CLASSIFICATION_TYPE = U
NORAD_CAT_ID   = 68093
ELEMENT_SET_NO = 999
REV_AT_EPOCH   = 536
BSTAR          = .28507E-3
MEAN_MOTION_DOT = .55873E-3
MEAN_MOTION_DDOT = 0

CCSDS_OMM_VERS = 2.0
CREATION_DATE  = 
ORIGINATOR     = 

OBJECT_NAME    = STARLINK-36787
OBJECT_ID      = 2026-042AB
CENTER_NAME    = EARTH
REF_FRAME      = TEME
TIME_SYSTEM    = UTC
MEAN_ELEMENT_THEORY = SGP/SGP4

EPOCH          = 2026-03-30T10:52:52.699008
MEAN_MOTION    = 15.75309729
ECCENTRICITY   = .0001334
INCLINATION    = 53.1587
RA_OF_ASC_NODE = 90.9615
ARG_OF_PERICENTER = 81.0779
MEAN_ANOMALY   = 279.0392

EPHEMERIS_TYPE = 0
CLASSIFICATION_TYPE = U
NORAD_CAT_ID   = 68094
ELEMENT_SET_NO = 999
REV_AT_EPOCH   = 535
BSTAR          = .16087E-2
MEAN_MOTION_DOT = .254299E-2
MEAN_MOTION_DDOT = 0

CCSDS_OMM_VERS = 2.0
CREATION_DATE  = 
ORIGINATOR     = 

OBJECT_NAME    = STARLINK-36790
OBJECT_ID      = 2026-042AC
CENTER_NAME    = EARTH
REF_FRAME      = TEME
TIME_SYSTEM    = UTC
MEAN_ELEMENT_THEORY = SGP/SGP4

EPOCH          = 2026-03-30T02:49:54.141600
MEAN_MOTION    = 15.75525520
ECCENTRICITY   = .00035593
INCLINATION    = 53.1589
RA_OF_ASC_NODE = 92.4188
ARG_OF_PERICENTER = 134.4676
MEAN_ANOMALY   = 225.6636

EPHEMERIS_TYPE = 0
CLASSIFICATION_TYPE = U
NORAD_CAT_ID   = 68095
ELEMENT_SET_NO = 999
REV_AT_EPOCH   = 530
BSTAR          = -.42899541E-2
MEAN_MOTION_DOT = -.620495E-2
MEAN_MOTION_DDOT = 0

CCSDS_OMM_VERS = 2.0
CREATION_DATE  = 
ORIGINATOR     = 

OBJECT_NAME    = STARLINK-36328
OBJECT_ID      = 2026-042AD
CENTER_NAME    = EARTH
REF_FRAME      = TEME
TIME_SYSTEM    = UTC
MEAN_ELEMENT_THEORY = SGP/SGP4

EPOCH          = 2026-03-30T12:00:01.999296
MEAN_MOTION    = 15.75189502
ECCENTRICITY   = .0001196
INCLINATION    = 53.1586
RA_OF_ASC_NODE = 90.3603
ARG_OF_PERICENTER = 111.3550
MEAN_ANOMALY   = 333.6667

EPHEMERIS_TYPE = 0
CLASSIFICATION_TYPE = U
NORAD_CAT_ID   = 68096
ELEMENT_SET_NO = 999
REV_AT_EPOCH   = 538
BSTAR          = .98008E-3
MEAN_MOTION_DOT = .151994E-2
MEAN_MOTION_DDOT = 0

CCSDS_OMM_VERS = 2.0
CREATION_DATE  = 
ORIGINATOR     = 

OBJECT_NAME    = STARLINK-36853
OBJECT_ID      = 2026-042AE
CENTER_NAME    = EARTH
REF_FRAME      = TEME
TIME_SYSTEM    = UTC
MEAN_ELEMENT_THEORY = SGP/SGP4

EPOCH          = 2026-03-28T13:54:14.999328
MEAN_MOTION    = 15.81023297
ECCENTRICITY   = .00015476
INCLINATION    = 53.1585
RA_OF_ASC_NODE = 99.8798
ARG_OF_PERICENTER = 92.2219
MEAN_ANOMALY   = 267.8981

EPHEMERIS_TYPE = 0
CLASSIFICATION_TYPE = U
NORAD_CAT_ID   = 68097
ELEMENT_SET_NO = 999
REV_AT_EPOCH   = 506
BSTAR          = .19382612E-2
MEAN_MOTION_DOT = .40303E-2
MEAN_MOTION_DDOT = 0

CCSDS_OMM_VERS = 2.0
CREATION_DATE  = 
ORIGINATOR     = 

OBJECT_NAME    = GLOBAL-34
OBJECT_ID      = 2026-043A
CENTER_NAME    = EARTH
REF_FRAME      = TEME
TIME_SYSTEM    = UTC
MEAN_ELEMENT_THEORY = SGP/SGP4

EPOCH          = 2026-03-30T00:21:54.932832
MEAN_MOTION    = 15.31905044
ECCENTRICITY   = .00036871
INCLINATION    = 42.0222
RA_OF_ASC_NODE = 318.1532
ARG_OF_PERICENTER = 67.6458
MEAN_ANOMALY   = 292.4770

EPHEMERIS_TYPE = 0
CLASSIFICATION_TYPE = U
NORAD_CAT_ID   = 68098
ELEMENT_SET_NO = 999
REV_AT_EPOCH   = 368
BSTAR          = .53140528E-3
MEAN_MOTION_DOT = .16512E-3
MEAN_MOTION_DDOT = 0

